*******************************************************************************
Ephemeris / WWW_USER Tue Mar 27 19:58:41 2018 Pasadena, USA      / Horizons    
*******************************************************************************
Target body name: Mars Barycenter (4)             {source: DE431mx}
Center body name: Solar System Barycenter (0)     {source: DE431mx}
Center-site name: BODY CENTER
*******************************************************************************
Start time      : A.D. 2000-Jan-01 00:00:00.0000 TDB
Stop  time      : A.D. 2010-Jan-01 00:00:00.0000 TDB
Step-size       : 7200 minutes
*******************************************************************************
Center geodetic : 0.00000000,0.00000000,0.0000000 {E-lon(deg),Lat(deg),Alt(km)}
Center cylindric: 0.00000000,0.00000000,0.0000000 {E-lon(deg),Dxy(km),Dz(km)}
Center radii    : (undefined)                                                  
Output units    : AU-D                                                         
Output type     : GEOMETRIC cartesian states
Output format   : 2 (position and velocity)
Reference frame : ICRF/J2000.0                                                 
Coordinate systm: Ecliptic and Mean Equinox of Reference Epoch                 
*******************************************************************************
JDTDB
   X     Y     Z
   VX    VY    VZ
*******************************************************************************
$$SOE
2452384.500000000 = A.D. 2002-Apr-20 00:00:00.0000 TDB 
   1.170940382115455E-01  1.549229981662809E+00  2.973089766358767E-02
  -1.341314794642801E-02  2.244757079403600E-03  3.765924254297306E-04
2452389.500000000 = A.D. 2002-Apr-25 00:00:00.0000 TDB 
   4.993553252023775E-02  1.558940159417676E+00  3.158442642091559E-02
  -1.344584658815861E-02  1.639868638747956E-03  3.647223681960515E-04
2452394.500000000 = A.D. 2002-Apr-30 00:00:00.0000 TDB 
  -1.732082242140304E-02  1.565635061573931E+00  3.337718360967332E-02
  -1.345238281815030E-02  1.038814452362539E-03  3.522896485550079E-04
2452399.500000000 = A.D. 2002-May-05 00:00:00.0000 TDB 
  -8.454565952765207E-02  1.569336327569963E+00  3.510644313892122E-02
  -1.343333796987952E-02  4.425726485524876E-04  3.393290455756722E-04
2452404.500000000 = A.D. 2002-May-10 00:00:00.0000 TDB 
  -1.516125652511489E-01  1.570070352084433E+00  3.676965112749560E-02
  -1.338931147926499E-02 -1.479324638909346E-04  3.258746555246739E-04
2452409.500000000 = A.D. 2002-May-15 00:00:00.0000 TDB 
  -2.183981607211452E-01  1.567868021185679E+00  3.836442237181104E-02
  -1.332091719763891E-02 -7.318282721088308E-04  3.119598466256000E-04
2452414.500000000 = A.D. 2002-May-20 00:00:00.0000 TDB 
  -2.847821653724877E-01  1.562764459431596E+00  3.988853661667627E-02
  -1.322878007266583E-02 -1.308291609964898E-03  2.976172252613184E-04
2452419.500000000 = A.D. 2002-May-25 00:00:00.0000 TDB 
  -3.506474448693063E-01  1.554798788445749E+00  4.133993468291985E-02
  -1.311353318274604E-02 -1.876546422902783E-03  2.828786122898363E-04
2452424.500000000 = A.D. 2002-May-30 00:00:00.0000 TDB 
  -4.158800450514429E-01  1.544013897311447E+00  4.271671449958228E-02
  -1.297581510904068E-02 -2.435861380960375E-03  2.677750284072115E-04
2452429.500000000 = A.D. 2002-Jun-04 00:00:00.0000 TDB 
  -4.803692135502831E-01  1.530456224971961E+00  4.401712708378232E-02
  -1.281626762824082E-02 -2.985547467472183E-03  2.523366877187516E-04
2452434.500000000 = A.D. 2002-Jun-09 00:00:00.0000 TDB 
  -5.440074106320884E-01  1.514175554699702E+00  4.523957250728135E-02
  -1.263553370762335E-02 -3.524955566237152E-03  2.365929987124882E-04
2452439.500000000 = A.D. 2002-Jun-14 00:00:00.0000 TDB 
  -6.066903107320346E-01  1.495224820592888E+00  4.638259588473139E-02
  -1.243425578300906E-02 -4.053474066296829E-03  2.205725718243684E-04
2452444.500000000 = A.D. 2002-Jun-19 00:00:00.0000 TDB 
  -6.683167960444393E-01  1.473659925969817E+00  4.744488341456143E-02
  -1.221307430002718E-02 -4.570526500614270E-03  2.043032327978140E-04
2452449.500000000 = A.D. 2002-Jun-24 00:00:00.0000 TDB 
  -7.287889434372948E-01  1.449539573455705E+00  4.842525849955925E-02
  -1.197262649940823E-02 -5.075569232484225E-03  1.878120410811183E-04
2452454.500000000 = A.D. 2002-Jun-29 00:00:00.0000 TDB 
  -7.880120058643720E-01  1.422925106493473E+00  4.932267797056539E-02
  -1.171354542768064E-02 -5.568089201312919E-03  1.711253125638122E-04
2452459.500000000 = A.D. 2002-Jul-04 00:00:00.0000 TDB 
  -8.458943893571214E-01  1.393880361956671E+00  5.013622843337018E-02
  -1.143645915551917E-02 -6.047601737445623E-03  1.542686460224635E-04
2452464.500000000 = A.D. 2002-Jul-09 00:00:00.0000 TDB 
  -9.023476265925783E-01  1.362471533498751E+00  5.086512275593545E-02
  -1.114199018715932E-02 -6.513648453977352E-03  1.372669527172805E-04
2452469.500000000 = A.D. 2002-Jul-14 00:00:00.0000 TDB 
  -9.572863479547395E-01  1.328767045237946E+00  5.150869671040485E-02
  -1.083075504609697E-02 -6.965795221473598E-03  1.201444886242811E-04
2452474.500000000 = A.D. 2002-Jul-19 00:00:00.0000 TDB 
  -1.010628250938241E+00  1.292837435354774E+00  5.206640578167950E-02
  -1.050336402420058E-02 -7.403630228302358E-03  1.029248887179280E-04
2452479.500000000 = A.D. 2002-Jul-24 00:00:00.0000 TDB 
  -1.062294068676013E+00  1.254755249173542E+00  5.253782215114631E-02
  -1.016042107909443E-02 -7.826762126980835E-03  8.563120266597842E-05
2452484.500000000 = A.D. 2002-Jul-29 00:00:00.0000 TDB 
  -1.112207538281349E+00  1.214594941284722E+00  5.292263186210926E-02
  -9.802523859293184E-03 -8.234818273657412E-03  6.828593188898201E-05
2452489.500000000 = A.D. 2002-Aug-03 00:00:00.0000 TDB 
  -1.160295369611787E+00  1.172432786211072E+00  5.322063217478816E-02
  -9.430263848026288E-03 -8.627443071859635E-03  5.091106830159254E-05
2452494.500000000 = A.D. 2002-Aug-08 00:00:00.0000 TDB 
  -1.206487215052272E+00  1.128346797102878E+00  5.343172911774423E-02
  -9.044226626444361E-03 -9.004296415049580E-03  3.352813394493340E-05
2452499.500000000 = A.D. 2002-Aug-13 00:00:00.0000 TDB 
  -1.250715640891572E+00  1.082416651993958E+00  5.355593523776863E-02
  -8.644992244842314E-03 -9.365052219475098E-03  1.615822069677256E-05
2452504.500000000 = A.D. 2002-Aug-18 00:00:00.0000 TDB 
  -1.292916100791256E+00  1.034723627160942E+00  5.359336754867993E-02
  -8.233135686660004E-03 -9.709397050953398E-03 -1.177969843631463E-06
2452509.500000000 = A.D. 2002-Aug-23 00:00:00.0000 TDB 
  -1.333026911789625E+00  9.853505371058586E-01  5.354424568007256E-02
  -7.809227417397695E-03 -1.003702884903600E-02 -1.846008627580575E-05
2452514.500000000 = A.D. 2002-Aug-28 00:00:00.0000 TDB 
  -1.370989233250480E+00  9.343816806735756E-01  5.340889022661387E-02
  -7.373834012740772E-03 -1.034765574873901E-02 -3.566808729718451E-05
2452519.500000000 = A.D. 2002-Sep-02 00:00:00.0000 TDB 
  -1.406747049138609E+00  8.819027928184578E-01  5.318772129747658E-02
  -6.927518860157757E-03 -1.064099499902162E-02 -5.278220177709187E-05
2452524.500000000 = A.D. 2002-Sep-07 00:00:00.0000 TDB 
  -1.440247153975352E+00  8.280010015379851E-01  5.288125726463402E-02
  -6.470842928444791E-03 -1.091677197745555E-02 -6.978288916142880E-05
2452529.500000000 = A.D. 2002-Sep-12 00:00:00.0000 TDB 
  -1.471439142801062E+00  7.727647894931243E-01  5.249011370803208E-02
  -6.004365600134588E-03 -1.117471930083391E-02 -8.665080033724319E-05
2452534.500000000 = A.D. 2002-Sep-17 00:00:00.0000 TDB 
  -1.500275405447120E+00  7.162839598358339E-01  5.201500255504735E-02
  -5.528645562186037E-03 -1.141457603173416E-02 -1.033667390718284E-04
2452539.500000000 = A.D. 2002-Sep-22 00:00:00.0000 TDB 
  -1.526711125398378E+00  6.586496057633547E-01  5.145673141109255E-02
  -5.044241750804992E-03 -1.163608698130921E-02 -1.199116241322582E-04
2452544.500000000 = A.D. 2002-Sep-27 00:00:00.0000 TDB 
  -1.550704283507042E+00  5.999540833168300E-01  5.081620307771318E-02
  -4.551714346583769E-03 -1.183900210888958E-02 -1.362664521850196E-04
2452549.500000000 = A.D. 2002-Oct-02 00:00:00.0000 TDB 
  -1.572215666800503E+00  5.402909869379999E-01  5.009441525403328E-02
  -4.051625816354179E-03 -1.202307601934774E-02 -1.524122615733014E-04
2452554.500000000 = A.D. 2002-Oct-07 00:00:00.0000 TDB 
  -1.591208882607977E+00  4.797551272917601E-01  4.929246041691316E-02
  -3.544541998300613E-03 -1.218806755968437E-02 -1.683300970734300E-04
2452559.500000000 = A.D. 2002-Oct-12 00:00:00.0000 TDB 
  -1.607650378214486E+00  4.184425108534368E-01  4.841152587460498E-02
  -3.031033227378467E-03 -1.233373951695917E-02 -1.840009757669731E-04
2452564.500000000 = A.D. 2002-Oct-17 00:00:00.0000 TDB 
  -1.621509466239128E+00  3.564503207478649E-01  4.745289398784480E-02
  -2.511675499510920E-03 -1.245985842002935E-02 -1.994058542340037E-04
2452569.500000000 = A.D. 2002-Oct-22 00:00:00.0000 TDB 
  -1.632758355930323E+00  2.938768983163969E-01  4.641794255120802E-02
  -1.987051673978736E-03 -1.256619444679887E-02 -2.145255972785502E-04
2452574.500000000 = A.D. 2002-Oct-27 00:00:00.0000 TDB 
  -1.641372190561784E+00  2.308217248825020E-01  4.530814532697389E-02
  -1.457752710182450E-03 -1.265252143770283E-02 -2.293409481690624E-04
2452579.500000000 = A.D. 2002-Nov-01 00:00:00.0000 TDB 
  -1.647329091080322E+00  1.673854031790295E-01  4.412507272447500E-02
  -9.243789300074714E-04 -1.271861701849487E-02 -2.438325001767496E-04
2452584.500000000 = A.D. 2002-Nov-06 00:00:00.0000 TDB 
  -1.650610206114138E+00  1.036696378719735E-01  4.287039261829428E-02
  -3.875412993084533E-04 -1.276426284049340E-02 -2.579806695957839E-04
2452589.500000000 = A.D. 2002-Nov-11 00:00:00.0000 TDB 
  -1.651199768438521E+00  3.977721457211727E-02  4.154587129614195E-02
   1.521372700655089E-04 -1.278924494596451E-02 -2.717656709660096E-04
